{"epoch":1784762836,"count":18316,"objects":[{"id":"44793","name":"BEIDOU 3M21","type":"PAYLOAD","l1":"1 44793U 19078A   26201.91091067 -.00000098  00000-0  00000-0 0  9994","l2":"2 44793  53.9028 298.6402 0005603  50.2813 309.8054  1.86227204 45279"},{"id":"44794","name":"BEIDOU 3M22","type":"PAYLOAD","l1":"1 44794U 19078B   26200.97683179 -.00000096  00000-0  00000-0 0  9999","l2":"2 44794  53.8770 298.6333 0003525  49.7600 310.3090  1.86227606 45266"},{"id":"44864","name":"BEIDOU 3M19","type":"PAYLOAD","l1":"1 44864U 19090A   26203.09769958 -.00000079  00000-0  00000-0 0  9998","l2":"2 44864  56.5900  61.6363 0016555 296.8524 242.7354  1.86231513 44887"},{"id":"44865","name":"BEIDOU 3M20","type":"PAYLOAD","l1":"1 44865U 19090B   26202.96464863 -.00000079  00000-0  00000-0 0  9991","l2":"2 44865  56.5915  61.6754 0014231 312.1692 227.7948  1.86231478 44865"},{"id":"45344","name":"BEIDOU 3 G2","type":"PAYLOAD","l1":"1 45344U 20017A   26203.63015752 -.00000139  00000-0  00000-0 0  9996","l2":"2 45344   2.9347  47.8452 0002085  57.4791 141.9368  1.00272691 23617"},{"id":"45807","name":"BEIDOU 3 G3","type":"PAYLOAD","l1":"1 45807U 20040A   26203.63622421 -.00000352  00000-0  00000-0 0  9990","l2":"2 45807   2.5325  67.5045 0002294 316.0842 256.3813  1.00273366 22427"},{"id":"56564","name":"BEIDOU 3 G4","type":"PAYLOAD","l1":"1 56564U 23066A   26203.64203090 -.00000277  00000-0  00000-0 0  9997","l2":"2 56564   0.4549 341.0270 0005140 182.7160 147.8320  1.00270640 11740"},{"id":"58654","name":"BEIDOU 3 M28","type":"PAYLOAD","l1":"1 58654U 23207A   26202.66461816 -.00000081  00000-0  00000-0 0  9992","l2":"2 58654  55.7837  61.1401 0002214   9.0129 351.0521  1.86229818 17480"},{"id":"58655","name":"BEIDOU 3 M26","type":"PAYLOAD","l1":"1 58655U 23207B   26202.46211556 -.00000082  00000-0  00000-0 0  9996","l2":"2 58655  55.7861  61.1336 0001673 324.0688  35.9810  1.86229782 17460"},{"id":"61186","name":"BEIDOU 3M25","type":"PAYLOAD","l1":"1 61186U 24168B   26202.81540095 -.00000101  00000-0  00000-0 0  9990","l2":"2 61186  54.4399 301.0379 0003485 291.3786  63.0121  1.86230292 12422"},{"id":"61187","name":"BEIDOU 3M27","type":"PAYLOAD","l1":"1 61187U 24168C   26200.42214709 -.00000096  00000-0  00000-0 0  9999","l2":"2 61187  54.4377 301.1038 0000858  40.8164 284.0569  1.86230211  9855"}]}